KUIPER-00153            
1 65773U 25217M   26187.28457303  .00002553  00000+0  36380-3 0  9998
2 65773  51.9009 221.2499 0000522  88.0733 272.0289 14.79928163 42681
KUIPER-00155            
1 65774U 25217N   26187.71940374  .00001457  00000+0  22003-3 0  9991
2 65774  51.9005 191.7894 0000466  72.3983 287.7031 14.79933164 43134
KUIPER-00156            
1 65775U 25217P   26187.38586071  .00002325  00000+0  33391-3 0  9992
2 65775  51.9006 220.7831 0000464  85.6271 274.4744 14.79935667 42699
KUIPER-00163            
1 65777U 25217R   26187.75003471  .00257518  38485-4  52478-3 0  9999
2 65777  51.8767 162.7683 0005361  50.1021 241.1833 15.98957061  5610
KUIPER-00165            
1 65778U 25217S   26187.37504822 -.00004122  00000+0 -51198-3 0  9992
2 65778  51.8998 230.7775 0000636  95.7976 264.3059 14.79934669 42557
KUIPER-00166            
1 65779U 25217T   26187.28726149  .00002261  00000+0  32548-3 0  9999
2 65779  51.9006 218.7138 0000400  82.4587 277.6421 14.79934624 42717
KUIPER-00167            
1 65780U 25217U   26187.36423513  .00005172  00000+0  70641-3 0  9999
2 65780  51.8959 240.7384 0000373  43.2805 316.8187 14.79962691 42417
KUIPER-00168            
1 65781U 25217V   26187.31562400  .00002425  00000+0  34702-3 0  9990
2 65781  51.8990 223.5451 0000440  85.0605 275.0408 14.79934940 42658
KUIPER-00169            
1 65782U 25217W   26187.31024050 -.00000640  00000+0 -54913-4 0  9991
2 65782  51.8988 228.5778 0000529  90.7136 269.3887 14.79925563 42583
KUIPER-00170            
1 65783U 25217X   26187.37236664  .00002630  00000+0  37388-3 0  9999
2 65783  51.8974 233.2626 0000483  93.4359 266.6659 14.79930473 42527
KUIPER-00172            
1 65785U 25217Z   26187.49254491 -.00001299  00000+0 -14137-3 0  9991
2 65785  51.8968 215.2599 0001034  88.0586 272.0495 14.79924575 42789
KUIPER-00173            
1 65786U 25217AA  26187.41149638  .00003065  00000+0  43062-3 0  9990
2 65786  51.8979 228.1253 0000618  92.7646 267.3387 14.79957197 42590
KUIPER-00174            
1 65787U 25217AB  26187.34939948  .00000617  00000+0  10989-3 0  9996
2 65787  51.9009 223.4481 0000488 100.0759 260.0259 14.79924893 42652
KUIPER-00176            
1 65788U 25217AC  26187.33321180  .00001605  00000+0  23943-3 0  9991
2 65788  51.8966 238.4550 0000501  96.1681 263.9338 14.79932786 42449
KUIPER-00101            
1 65947U 25228A   26187.41281805  .00001391  00000+0  21145-3 0  9992
2 65947  51.8966 195.5619 0000419  76.2661 283.8348 14.79931340 40816
KUIPER-00113            
1 65948U 25228B   26187.72207201 -.00000677  00000+0 -59897-4 0  9999
2 65948  51.8957 189.2141 0000499  75.7346 284.3671 14.79922094 40922
