{"fetched_at":"2026-07-07T07:58:09.009Z","source":"https://celestrak.org/NORAD/elements/gp.php?GROUP=kuiper&FORMAT=JSON","constellation":"kuiper","records":[{"OBJECT_NAME":"KUIPER-00153","OBJECT_ID":"2025-217M","EPOCH":"2026-07-06T06:49:47.109792","CLASSIFICATION_TYPE":"U","MEAN_MOTION":14.79928163,"ECCENTRICITY":0.00005227,"INCLINATION":51.9009,"RA_OF_ASC_NODE":221.2499,"ARG_OF_PERICENTER":88.0733,"MEAN_ANOMALY":272.0289,"EPHEMERIS_TYPE":0,"NORAD_CAT_ID":65773,"ELEMENT_SET_NO":999,"REV_AT_EPOCH":4268,"BSTAR":0.00036379712,"MEAN_MOTION_DOT":0.00002553,"MEAN_MOTION_DDOT":0},{"OBJECT_NAME":"KUIPER-00155","OBJECT_ID":"2025-217N","EPOCH":"2026-07-06T17:15:56.483136","CLASSIFICATION_TYPE":"U","MEAN_MOTION":14.79933164,"ECCENTRICITY":0.0000466,"INCLINATION":51.9005,"RA_OF_ASC_NODE":191.7894,"ARG_OF_PERICENTER":72.3983,"MEAN_ANOMALY":287.7031,"EPHEMERIS_TYPE":0,"NORAD_CAT_ID":65774,"ELEMENT_SET_NO":999,"REV_AT_EPOCH":4313,"BSTAR":0.00022003,"MEAN_MOTION_DOT":0.00001457,"MEAN_MOTION_DDOT":0},{"OBJECT_NAME":"KUIPER-00156","OBJECT_ID":"2025-217P","EPOCH":"2026-07-06T09:15:38.365344","CLASSIFICATION_TYPE":"U","MEAN_MOTION":14.79935667,"ECCENTRICITY":0.00004643,"INCLINATION":51.9006,"RA_OF_ASC_NODE":220.7831,"ARG_OF_PERICENTER":85.6271,"MEAN_ANOMALY":274.4744,"EPHEMERIS_TYPE":0,"NORAD_CAT_ID":65775,"ELEMENT_SET_NO":999,"REV_AT_EPOCH":4269,"BSTAR":0.00033390688,"MEAN_MOTION_DOT":0.00002325,"MEAN_MOTION_DDOT":0},{"OBJECT_NAME":"KUIPER-00163","OBJECT_ID":"2025-217R","EPOCH":"2026-07-06T18:00:02.998944","CLASSIFICATION_TYPE":"U","MEAN_MOTION":15.98957061,"ECCENTRICITY":0.0005361,"INCLINATION":51.8767,"RA_OF_ASC_NODE":162.7683,"ARG_OF_PERICENTER":50.1021,"MEAN_ANOMALY":241.1833,"EPHEMERIS_TYPE":0,"NORAD_CAT_ID":65777,"ELEMENT_SET_NO":999,"REV_AT_EPOCH":561,"BSTAR":0.00052478,"MEAN_MOTION_DOT":0.00257518,"MEAN_MOTION_DDOT":0.000038485},{"OBJECT_NAME":"KUIPER-00165","OBJECT_ID":"2025-217S","EPOCH":"2026-07-06T09:00:04.166208","CLASSIFICATION_TYPE":"U","MEAN_MOTION":14.79934669,"ECCENTRICITY":0.00006368,"INCLINATION":51.8998,"RA_OF_ASC_NODE":230.7775,"ARG_OF_PERICENTER":95.7976,"MEAN_ANOMALY":264.3059,"EPHEMERIS_TYPE":0,"NORAD_CAT_ID":65778,"ELEMENT_SET_NO":999,"REV_AT_EPOCH":4255,"BSTAR":-0.00051198372,"MEAN_MOTION_DOT":-0.00004122,"MEAN_MOTION_DDOT":0},{"OBJECT_NAME":"KUIPER-00166","OBJECT_ID":"2025-217T","EPOCH":"2026-07-06T06:53:39.392736","CLASSIFICATION_TYPE":"U","MEAN_MOTION":14.79934624,"ECCENTRICITY":0.00004005,"INCLINATION":51.9006,"RA_OF_ASC_NODE":218.7138,"ARG_OF_PERICENTER":82.4587,"MEAN_ANOMALY":277.6421,"EPHEMERIS_TYPE":0,"NORAD_CAT_ID":65779,"ELEMENT_SET_NO":999,"REV_AT_EPOCH":4271,"BSTAR":0.00032548421,"MEAN_MOTION_DOT":0.00002261,"MEAN_MOTION_DDOT":0},{"OBJECT_NAME":"KUIPER-00167","OBJECT_ID":"2025-217U","EPOCH":"2026-07-06T08:44:29.915232","CLASSIFICATION_TYPE":"U","MEAN_MOTION":14.79962691,"ECCENTRICITY":0.00003738,"INCLINATION":51.8959,"RA_OF_ASC_NODE":240.7384,"ARG_OF_PERICENTER":43.2805,"MEAN_ANOMALY":316.8187,"EPHEMERIS_TYPE":0,"NORAD_CAT_ID":65780,"ELEMENT_SET_NO":999,"REV_AT_EPOCH":4241,"BSTAR":0.00070640953,"MEAN_MOTION_DOT":0.00005172,"MEAN_MOTION_DDOT":0},{"OBJECT_NAME":"KUIPER-00168","OBJECT_ID":"2025-217V","EPOCH":"2026-07-06T07:34:29.913600","CLASSIFICATION_TYPE":"U","MEAN_MOTION":14.7993494,"ECCENTRICITY":0.00004409,"INCLINATION":51.899,"RA_OF_ASC_NODE":223.5451,"ARG_OF_PERICENTER":85.0605,"MEAN_ANOMALY":275.0408,"EPHEMERIS_TYPE":0,"NORAD_CAT_ID":65781,"ELEMENT_SET_NO":999,"REV_AT_EPOCH":4265,"BSTAR":0.00034701565,"MEAN_MOTION_DOT":0.00002425,"MEAN_MOTION_DDOT":0},{"OBJECT_NAME":"KUIPER-00169","OBJECT_ID":"2025-217W","EPOCH":"2026-07-06T07:26:44.779200","CLASSIFICATION_TYPE":"U","MEAN_MOTION":14.79925563,"ECCENTRICITY":0.0000529,"INCLINATION":51.8988,"RA_OF_ASC_NODE":228.5778,"ARG_OF_PERICENTER":90.7136,"MEAN_ANOMALY":269.3887,"EPHEMERIS_TYPE":0,"NORAD_CAT_ID":65782,"ELEMENT_SET_NO":999,"REV_AT_EPOCH":4258,"BSTAR":-0.000054912523,"MEAN_MOTION_DOT":-0.0000064,"MEAN_MOTION_DDOT":0},{"OBJECT_NAME":"KUIPER-00170","OBJECT_ID":"2025-217X","EPOCH":"2026-07-06T08:56:12.477696","CLASSIFICATION_TYPE":"U","MEAN_MOTION":14.79930473,"ECCENTRICITY":0.0000483,"INCLINATION":51.8974,"RA_OF_ASC_NODE":233.2626,"ARG_OF_PERICENTER":93.4359,"MEAN_ANOMALY":266.6659,"EPHEMERIS_TYPE":0,"NORAD_CAT_ID":65783,"ELEMENT_SET_NO":999,"REV_AT_EPOCH":4252,"BSTAR":0.00037387606,"MEAN_MOTION_DOT":0.0000263,"MEAN_MOTION_DDOT":0},{"OBJECT_NAME":"KUIPER-00172","OBJECT_ID":"2025-217Z","EPOCH":"2026-07-06T11:49:15.880224","CLASSIFICATION_TYPE":"U","MEAN_MOTION":14.79924575,"ECCENTRICITY":0.00010345,"INCLINATION":51.8968,"RA_OF_ASC_NODE":215.2599,"ARG_OF_PERICENTER":88.0586,"MEAN_ANOMALY":272.0495,"EPHEMERIS_TYPE":0,"NORAD_CAT_ID":65785,"ELEMENT_SET_NO":999,"REV_AT_EPOCH":4278,"BSTAR":-0.00014137195,"MEAN_MOTION_DOT":-0.00001299,"MEAN_MOTION_DDOT":0},{"OBJECT_NAME":"KUIPER-00173","OBJECT_ID":"2025-217AA","EPOCH":"2026-07-06T09:52:33.287232","CLASSIFICATION_TYPE":"U","MEAN_MOTION":14.79957197,"ECCENTRICITY":0.0000618,"INCLINATION":51.8979,"RA_OF_ASC_NODE":228.1253,"ARG_OF_PERICENTER":92.7646,"MEAN_ANOMALY":267.3387,"EPHEMERIS_TYPE":0,"NORAD_CAT_ID":65786,"ELEMENT_SET_NO":999,"REV_AT_EPOCH":4259,"BSTAR":0.00043062,"MEAN_MOTION_DOT":0.00003065,"MEAN_MOTION_DDOT":0},{"OBJECT_NAME":"KUIPER-00174","OBJECT_ID":"2025-217AB","EPOCH":"2026-07-06T08:23:08.115072","CLASSIFICATION_TYPE":"U","MEAN_MOTION":14.79924893,"ECCENTRICITY":0.00004885,"INCLINATION":51.9009,"RA_OF_ASC_NODE":223.4481,"ARG_OF_PERICENTER":100.0759,"MEAN_ANOMALY":260.0259,"EPHEMERIS_TYPE":0,"NORAD_CAT_ID":65787,"ELEMENT_SET_NO":999,"REV_AT_EPOCH":4265,"BSTAR":0.00010989455,"MEAN_MOTION_DOT":0.00000617,"MEAN_MOTION_DDOT":0},{"OBJECT_NAME":"KUIPER-00176","OBJECT_ID":"2025-217AC","EPOCH":"2026-07-06T07:59:49.499520","CLASSIFICATION_TYPE":"U","MEAN_MOTION":14.79932786,"ECCENTRICITY":0.00005013,"INCLINATION":51.8966,"RA_OF_ASC_NODE":238.455,"ARG_OF_PERICENTER":96.1681,"MEAN_ANOMALY":263.9338,"EPHEMERIS_TYPE":0,"NORAD_CAT_ID":65788,"ELEMENT_SET_NO":999,"REV_AT_EPOCH":4244,"BSTAR":0.00023943464,"MEAN_MOTION_DOT":0.00001605,"MEAN_MOTION_DDOT":0},{"OBJECT_NAME":"KUIPER-00101","OBJECT_ID":"2025-228A","EPOCH":"2026-07-06T09:54:27.479520","CLASSIFICATION_TYPE":"U","MEAN_MOTION":14.7993134,"ECCENTRICITY":0.00004192,"INCLINATION":51.8966,"RA_OF_ASC_NODE":195.5619,"ARG_OF_PERICENTER":76.2661,"MEAN_ANOMALY":283.8348,"EPHEMERIS_TYPE":0,"NORAD_CAT_ID":65947,"ELEMENT_SET_NO":999,"REV_AT_EPOCH":4081,"BSTAR":0.0002114538,"MEAN_MOTION_DOT":0.00001391,"MEAN_MOTION_DDOT":0},{"OBJECT_NAME":"KUIPER-00113","OBJECT_ID":"2025-228B","EPOCH":"2026-07-06T17:19:47.021664","CLASSIFICATION_TYPE":"U","MEAN_MOTION":14.79922094,"ECCENTRICITY":0.0000499,"INCLINATION":51.8957,"RA_OF_ASC_NODE":189.2141,"ARG_OF_PERICENTER":75.7346,"MEAN_ANOMALY":284.3671,"EPHEMERIS_TYPE":0,"NORAD_CAT_ID":65948,"ELEMENT_SET_NO":999,"REV_AT_EPOCH":4092,"BSTAR":-0.000059897,"MEAN_MOTION_DOT":-0.00000677,"MEAN_MOTION_DDOT":0}]}
